1551821391.56 : {"ICAO": "KJFK","QNH": 2996, "METAR": "KJFK 052051Z 25016KT 10SM FEW050 FEW250 00/M09 A2996 RMK AO2 SLP144 T00001094 56025", "NAME": "John F Kennedy International Airport", "IATA": "JFK","DISTNM": 0.1}
1551821401.36 : {"ICAO": "KJFK","QNH": 2996, "METAR": "KJFK 052051Z 25016KT 10SM FEW050 FEW250 00/M09 A2996 RMK AO2 SLP144 T00001094 56025", "NAME": "John F Kennedy International Airport", "IATA": "JFK","DISTNM": 0.1}
1551821411.18 : {"ICAO": "KJFK","QNH": 2996, "METAR": "KJFK 052051Z 25016KT 10SM FEW050 FEW250 00/M09 A2996 RMK AO2 SLP144 T00001094 56025", "NAME": "John F Kennedy International Airport", "IATA": "JFK","DISTNM": 0.1}
1551821420.95 : {"ICAO": "KJFK","QNH": 2996, "METAR": "KJFK 052051Z 25016KT 10SM FEW050 FEW250 00/M09 A2996 RMK AO2 SLP144 T00001094 56025", "NAME": "John F Kennedy International Airport", "IATA": "JFK","DISTNM": 0.1}
