1551819321.4 : {"ICAO": "KLAS","QNH": 3001, "METAR": "KLAS 051956Z 01005KT 10SM FEW120 SCT150 BKN200 19/03 A3001 RMK AO2 SLP154 T01890033", "NAME": "McCarran International Airport", "IATA": "LAS","DISTNM": 0.1}
1551819331.21 : {"ICAO": "KLAS","QNH": 3001, "METAR": "KLAS 051956Z 01005KT 10SM FEW120 SCT150 BKN200 19/03 A3001 RMK AO2 SLP154 T01890033", "NAME": "McCarran International Airport", "IATA": "LAS","DISTNM": 0.1}
1551819340.99 : {"ICAO": "KLAS","QNH": 3001, "METAR": "KLAS 051956Z 01005KT 10SM FEW120 SCT150 BKN200 19/03 A3001 RMK AO2 SLP154 T01890033", "NAME": "McCarran International Airport", "IATA": "LAS","DISTNM": 0.1}
1551819350.82 : {"ICAO": "KLAS","QNH": 3001, "METAR": "KLAS 051956Z 01005KT 10SM FEW120 SCT150 BKN200 19/03 A3001 RMK AO2 SLP154 T01890033", "NAME": "McCarran International Airport", "IATA": "LAS","DISTNM": 0.1}
